CTC1_L_00497009-23
1 10310U 25925LO  26075.70037037  .00000000  00000+0  00000-0 0  9994
2 10310  86.5000  96.0000 0000000   0.0000 230.6667 12.95442273    11
CTC1_L_00497009-24
1 10311U 24786DP  26075.70037037  .00000000  00000+0  00000-0 0  9999
2 10311  86.5000  96.0000 0000000   0.0000 240.6667 12.95442273    13
CTC1_L_00497009-25
1 10312U 25482XJ  26075.70037037  .00000000  00000+0  00000-0 0  9994
2 10312  86.5000  96.0000 0000000   0.0000 250.6667 12.95442273    15
CTC1_L_00497009-26
1 10313U 22453DS  26075.70037037  .00000000  00000+0  00000-0 0  9990
2 10313  86.5000  96.0000 0000000   0.0000 260.6667 12.95442273    17
CTC1_L_00497009-27
1 10314U 23234NS  26075.70037037  .00000000  00000+0  00000-0 0  9999
2 10314  86.5000  96.0000 0000000   0.0000 270.6667 12.95442273    19
CTC1_L_00497009-28
1 10315U 24694WI  26075.70037037  .00000000  00000+0  00000-0 0  9991
2 10315  86.5000  96.0000 0000000   0.0000 280.6667 12.95442273    11
CTC1_L_00497009-29
1 10316U 26477VU  26075.70037037  .00000000  00000+0  00000-0 0  9993
2 10316  86.5000  96.0000 0000000   0.0000 290.6667 12.95442273    13
CTC1_L_00497009-30
1 10317U 23538FC  26075.70037037  .00000000  00000+0  00000-0 0  9999
2 10317  86.5000  96.0000 0000000   0.0000 300.6667 12.95442273    16
CTC1_L_00497009-31
1 10318U 26859FM  26075.70037037  .00000000  00000+0  00000-0 0  9999
2 10318  86.5000  96.0000 0000000   0.0000 310.6667 12.95442273    18
CTC1_L_00497009-32
1 10319U 24588ZI  26075.70037037  .00000000  00000+0  00000-0 0  9997
2 10319  86.5000  96.0000 0000000   0.0000 320.6667 12.95442273    10
CTC1_L_00497009-33
1 10320U 26780CO  26075.70037037  .00000000  00000+0  00000-0 0  9995
2 10320  86.5000  96.0000 0000000   0.0000 330.6667 12.95442273    13
CTC1_L_00497009-34
1 10321U 26783SG  26075.70037037  .00000000  00000+0  00000-0 0  9999
2 10321  86.5000  96.0000 0000000   0.0000 340.6667 12.95442273    15
CTC1_L_00497009-35
1 10322U 26189DB  26075.70037037  .00000000  00000+0  00000-0 0  9990
2 10322  86.5000  96.0000 0000000   0.0000 350.6667 12.95442273    17
CTC1_L_00497009-36
1 10323U 23505QP  26075.70037037  .00000000  00000+0  00000-0 0  9990
2 10323  86.5000  96.0000 0000000   0.0000   0.6667 12.95442273    10
CTC1_L_00497010-01
1 10324U 24459GK  26075.70037037  .00000000  00000+0  00000-0 0  9990
2 10324  86.5000 108.0000 0000000   0.0000  12.0000 12.95442273    13
CTC1_L_00497010-02
1 10325U 24512JJ  26075.70037037  .00000000  00000+0  00000-0 0  9991
2 10325  86.5000 108.0000 0000000   0.0000  22.0000 12.95442273    15
CTC1_L_00497010-03
1 10326U 23344HD  26075.70037037  .00000000  00000+0  00000-0 0  9994
2 10326  86.5000 108.0000 0000000   0.0000  32.0000 12.95442273    17
CTC1_L_00497010-04
1 10327U 23050SO  26075.70037037  .00000000  00000+0  00000-0 0  9999
2 10327  86.5000 108.0000 0000000   0.0000  42.0000 12.95442273    19
CTC1_L_00497010-05
1 10328U 24577WG  26075.70037037  .00000000  00000+0  00000-0 0  9995
2 10328  86.5000 108.0000 0000000   0.0000  52.0000 12.95442273    11
CTC1_L_00497010-06
1 10329U 23428CI  26075.70037037  .00000000  00000+0  00000-0 0  9990
2 10329  86.5000 108.0000 0000000   0.0000  62.0000 12.95442273    13
CTC1_L_00497010-07
1 10330U 26051FL  26075.70037037  .00000000  00000+0  00000-0 0  9997
2 10330  86.5000 108.0000 0000000   0.0000  72.0000 12.95442273    16
CTC1_L_00497010-08
1 10331U 25936L   26075.70037037  .00000000  00000+0  00000-0 0  9999
2 10331  86.5000 108.0000 0000000   0.0000  82.0000 12.95442273    18
CTC1_L_00497010-09
1 10332U 23035MU  26075.70037037  .00000000  00000+0  00000-0 0  9998
2 10332  86.5000 108.0000 0000000   0.0000  92.0000 12.95442273    10
CTC1_L_00497010-10
1 10333U 24240SQ  26075.70037037  .00000000  00000+0  00000-0 0  9998
2 10333  86.5000 108.0000 0000000   0.0000 102.0000 12.95442273    13
CTC1_L_00497010-11
1 10334U 24355BO  26075.70037037  .00000000  00000+0  00000-0 0  9996
2 10334  86.5000 108.0000 0000000   0.0000 112.0000 12.95442273    15
CTC1_L_00497010-12
1 10335U 26938GK  26075.70037037  .00000000  00000+0  00000-0 0  9996
2 10335  86.5000 108.0000 0000000   0.0000 122.0000 12.95442273    17
CTC1_L_00497010-13
1 10336U 26825LL  26075.70037037  .00000000  00000+0  00000-0 0  9992
2 10336  86.5000 108.0000 0000000   0.0000 132.0000 12.95442273    19
CTC1_L_00497010-14
1 10337U 24907PN  26075.70037037  .00000000  00000+0  00000-0 0  9992
2 10337  86.5000 108.0000 0000000   0.0000 142.0000 12.95442273    11
CTC1_L_00497010-15
1 10338U 24055JP  26075.70037037  .00000000  00000+0  00000-0 0  9997
2 10338  86.5000 108.0000 0000000   0.0000 152.0000 12.95442273    13
CTC1_L_00497010-16
1 10339U 24875LD  26075.70037037  .00000000  00000+0  00000-0 0  9998
2 10339  86.5000 108.0000 0000000   0.0000 162.0000 12.95442273    15
CTC1_L_00497010-17
1 10340U 24463EQ  26075.70037037  .00000000  00000+0  00000-0 0  9993
2 10340  86.5000 108.0000 0000000   0.0000 172.0000 12.95442273    18
CTC1_L_00497010-18
1 10341U 23933KF  26075.70037037  .00000000  00000+0  00000-0 0  9995
2 10341  86.5000 108.0000 0000000   0.0000 182.0000 12.95442273    10
CTC1_L_00497010-19
1 10342U 26347ET  26075.70037037  .00000000  00000+0  00000-0 0  9998
2 10342  86.5000 108.0000 0000000   0.0000 192.0000 12.95442273    12
CTC1_L_00497010-20
1 10343U 25143JN  26075.70037037  .00000000  00000+0  00000-0 0  9992
2 10343  86.5000 108.0000 0000000   0.0000 202.0000 12.95442273    15
CTC1_L_00497010-21
1 10344U 25044HG  26075.70037037  .00000000  00000+0  00000-0 0  9993
2 10344  86.5000 108.0000 0000000   0.0000 212.0000 12.95442273    17
CTC1_L_00497010-22
1 10345U 26324TC  26075.70037037  .00000000  00000+0  00000-0 0  9996
2 10345  86.5000 108.0000 0000000   0.0000 222.0000 12.95442273    19
CTC1_L_00497010-23
1 10346U 25927MR  26075.70037037  .00000000  00000+0  00000-0 0  9995
2 10346  86.5000 108.0000 0000000   0.0000 232.0000 12.95442273    11
CTC1_L_00497010-24
1 10347U 26334ZV  26075.70037037  .00000000  00000+0  00000-0 0  9999
2 10347  86.5000 108.0000 0000000   0.0000 242.0000 12.95442273    13
CTC1_L_00497010-25
1 10348U 22583JR  26075.70037037  .00000000  00000+0  00000-0 0  9992
2 10348  86.5000 108.0000 0000000   0.0000 252.0000 12.95442273    15
CTC1_L_00497010-26
1 10349U 24192AU  26075.70037037  .00000000  00000+0  00000-0 0  9991
2 10349  86.5000 108.0000 0000000   0.0000 262.0000 12.95442273    17
CTC1_L_00497010-27
1 10350U 25428TP  26075.70037037  .00000000  00000+0  00000-0 0  9996
2 10350  86.5000 108.0000 0000000   0.0000 272.0000 12.95442273    10
CTC1_L_00497010-28
1 10351U 23192RT  26075.70037037  .00000000  00000+0  00000-0 0  9993
2 10351  86.5000 108.0000 0000000   0.0000 282.0000 12.95442273    12
CTC1_L_00497010-29
1 10352U 25526ZT  26075.70037037  .00000000  00000+0  00000-0 0  9997
2 10352  86.5000 108.0000 0000000   0.0000 292.0000 12.95442273    14
CTC1_L_00497010-30
1 10353U 24577JL  26075.70037037  .00000000  00000+0  00000-0 0  9993
2 10353  86.5000 108.0000 0000000   0.0000 302.0000 12.95442273    17
CTC1_L_00497010-31
1 10354U 26369NU  26075.70037037  .00000000  00000+0  00000-0 0  9995
2 10354  86.5000 108.0000 0000000   0.0000 312.0000 12.95442273    19
CTC1_L_00497010-32
1 10355U 22179PA  26075.70037037  .00000000  00000+0  00000-0 0  9991
2 10355  86.5000 108.0000 0000000   0.0000 322.0000 12.95442273    11
CTC1_L_00497010-33
1 10356U 22986WZ  26075.70037037  .00000000  00000+0  00000-0 0  9998
2 10356  86.5000 108.0000 0000000   0.0000 332.0000 12.95442273    13
CTC1_L_00497010-34
1 10357U 23232IV  26075.70037037  .00000000  00000+0  00000-0 0  9994
2 10357  86.5000 108.0000 0000000   0.0000 342.0000 12.95442273    15
CTC1_L_00497010-35
1 10358U 24439WR  26075.70037037  .00000000  00000+0  00000-0 0  9995
2 10358  86.5000 108.0000 0000000   0.0000 352.0000 12.95442273    17
CTC1_L_00497010-36
1 10359U 26960YB  26075.70037037  .00000000  00000+0  00000-0 0  9997
2 10359  86.5000 108.0000 0000000   0.0000   2.0000 12.95442273    10
CTC1_L_00497011-01
1 10360U 24489YT  26075.70037037  .00000000  00000+0  00000-0 0  9993
2 10360  86.5000 120.0000 0000000   0.0000  13.3333 12.95442273    10
CTC1_L_00497011-02
1 10361U 22399IV  26075.70037037  .00000000  00000+0  00000-0 0  9992
2 10361  86.5000 120.0000 0000000   0.0000  23.3333 12.95442273    12
CTC1_L_00497011-03
1 10362U 23384IY  26075.70037037  .00000000  00000+0  00000-0 0  9998
2 10362  86.5000 120.0000 0000000   0.0000  33.3333 12.95442273    14
CTC1_L_00497011-04
1 10363U 24023DW  26075.70037037  .00000000  00000+0  00000-0 0  9990
2 10363  86.5000 120.0000 0000000   0.0000  43.3333 12.95442273    16
CTC1_L_00497011-05
1 10364U 26618KT  26075.70037037  .00000000  00000+0  00000-0 0  9993
2 10364  86.5000 120.0000 0000000   0.0000  53.3333 12.95442273    18
CTC1_L_00497011-06
1 10365U 25725EP  26075.70037037  .00000000  00000+0  00000-0 0  9992
2 10365  86.5000 120.0000 0000000   0.0000  63.3333 12.95442273    10
CTC1_L_00497011-07
1 10366U 22390ZX  26075.70037037  .00000000  00000+0  00000-0 0  9998
2 10366  86.5000 120.0000 0000000   0.0000  73.3333 12.95442273    12
CTC1_L_00497011-08
1 10367U 23701GC  26075.70037037  .00000000  00000+0  00000-0 0  9996
2 10367  86.5000 120.0000 0000000   0.0000  83.3333 12.95442273    14
CTC1_L_00497011-09
1 10368U 25660DM  26075.70037037  .00000000  00000+0  00000-0 0  9993
2 10368  86.5000 120.0000 0000000   0.0000  93.3333 12.95442273    16
CTC1_L_00497011-10
1 10369U 26148HT  26075.70037037  .00000000  00000+0  00000-0 0  9996
2 10369  86.5000 120.0000 0000000   0.0000 103.3333 12.95442273    19
CTC1_L_00497011-11
1 10370U 25770QU  26075.70037037  .00000000  00000+0  00000-0 0  9998
2 10370  86.5000 120.0000 0000000   0.0000 113.3333 12.95442273    12
CTC1_L_00497011-12
1 10371U 23090QN  26075.70037037  .00000000  00000+0  00000-0 0  9992
2 10371  86.5000 120.0000 0000000   0.0000 123.3333 12.95442273    14
